IRIDIUM 7 [-]           
1 24793U 97020B   23295.90440917  .00000723  00000+0  24744-3 0  9993
2 24793  86.3945  69.5780 0001903  87.2945 272.8469 14.34942544385357
IRIDIUM 5 [-]           
1 24795U 97020D   23295.69153569  .00004067  00000+0  40573-3 0  9998
2 24795  86.3979 359.5737 0129571 127.3390 233.9723 14.85089642395643
IRIDIUM 4 [-]           
1 24796U 97020E   23295.85394303  .00000685  00000+0  22972-3 0  9995
2 24796  86.3945  66.8763 0002145  87.6027 272.5416 14.35849643385890
IRIDIUM 914 [-]         
1 24836U 97030A   23295.89375173  .00000936  00000+0  29328-3 0  9990
2 24836  86.3903  77.2282 0003718  70.9599 289.2002 14.39656464382396
IRIDIUM 911 [-]         
1 24842U 97030G   23295.89384303  .00001062  00000+0  29224-3 0  9998
2 24842  86.4411  97.9311 0012806 313.6341  46.3799 14.46071023387851
IRIDIUM 17 [-]          
1 24870U 97034B   23295.89541796  .00000672  00000+0  22169-3 0  9991
2 24870  86.3931 128.2792 0002418 131.5351 228.6053 14.36640023376931
IRIDIUM 920 [-]         
1 24871U 97034C   23295.89411173  .00000807  00000+0  24824-3 0  9997
2 24871  86.3925 108.9129 0009501 271.6272  88.3839 14.40357131379703
